STARLINK-32473          
1 62049C 24216T   26127.68520833 -.00055853  00000+0 -20229-2 0  1276
2 62049  43.0009 283.2122 0001526 264.2497 233.9226 15.27607327    15
STARLINK-32492          
1 62050C 24216U   26127.64631944 -.00021944  00000+0 -79462-3 0  1278
2 62050  43.0024 290.3271 0001620 282.5584  13.8580 15.27596733    19
STARLINK-32496          
1 62051C 24216V   26127.70395833 -.00013769  00000+0 -49867-3 0  1272
2 62051  43.0027 290.4728 0001299 288.4841 127.1938 15.27588862    14
STARLINK-32495          
1 62052C 24216W   26127.68868056 -.00066741  00000+0 -24169-2 0  1277
2 62052  43.0026 289.8501 0001624 267.3263   1.4278 15.27617770    13
STARLINK-32494          
1 62053C 24216X   26127.63520833 -.00012628  00000+0 -45758-3 0  1274
2 62053  43.0013 290.4916 0001353 274.5412 278.3387 15.27570101    15
STARLINK-32408          
1 62054C 24216Y   26127.67479167 -.00061468  00000+0 -22262-2 0  1272
2 62054  43.0005 283.2219 0001412 266.4657 195.5741 15.27611600    14
STARLINK-32571          
1 62055C 24216Z   26127.70395833 -.00018013  00000+0 -65233-3 0  1278
2 62055  43.0027 282.5153 0001415 291.4632 197.5150 15.27592878    13
STARLINK-11465 [DTC]    
1 62057C 24217A   26127.66645833 -.00013633  00000+0 -11226-3 0  1270
2 62057  53.1572 140.3182 0001094  74.6398 130.1052 15.69724986    15
STARLINK-11426 [DTC]    
1 62058C 24217B   26127.65256944 -.00014773  00000+0 -12168-3 0  1273
2 62058  53.1573 140.3301 0001188  86.4358  67.5158 15.69719841    15
STARLINK-11454 [DTC]    
1 62059C 24217C   26127.67687500 -.00024170  00000+0 -19897-3 0  1270
2 62059  53.1567 140.6054 0001272  87.3226   9.8977 15.69736617    13
STARLINK-11473 [DTC]    
1 62060C 24217D   26127.64145833 -.00012496  00000+0 -10286-3 0  1278
2 62060  53.1561 140.8930 0001252  72.5563 128.9345 15.69732283    19
STARLINK-11429 [DTC]    
1 62061C 24217E   26127.68659722 -.00042569  00000+0 -35062-3 0  1273
2 62061  53.1571 140.5003 0001053  62.9716 116.9574 15.69733113    15
STARLINK-11470 [DTC]    
1 62062C 24217F   26127.67201389 -.00021782  00000+0 -17935-3 0  1278
2 62062  53.1570 140.5133 0001229  85.9549  39.2565 15.69730894    13
STARLINK-11427 [DTC]    
1 62063C 24217G   26127.64354167 -.00008733  00000+0 -71916-4 0  1270
2 62063  53.1564 140.8253 0001467  82.5214 158.4899 15.69719341    17
STARLINK-11456 [DTC]    
1 62064C 24217H   26127.63590278 -.00012309  00000+0 -10137-3 0  1276
2 62064  53.1568 140.5230 0001124  67.1577 297.0857 15.69722264    17
STARLINK-11474 [DTC]    
1 62065C 24217J   26127.69562500 -.00026836  00000+0 -22100-3 0  1273
2 62065  53.1570 140.0586 0001226  84.3883 340.7472 15.69728653    11
STARLINK-11463 [DTC]    
1 62066C 24217K   26127.69006944 -.00046258  00000+0 -38085-3 0  1278
2 62066  53.1570 140.3683 0000979  89.7812 165.2530 15.69744549    15
STARLINK-11472 [DTC]    
1 62067C 24217L   26127.66715278  .00006529  00000+0  53907-4 0  1279
2 62067  53.1566 140.8767 0001465  91.6389 199.7512 15.69648245    19
STARLINK-11467 [DTC]    
1 62068C 24217M   26127.70673611 -.00051046  00000+0 -42038-3 0  1277
2 62068  53.1570 140.2284 0001216  86.2178 290.7928 15.69740591    13
STARLINK-11460 [DTC]    
1 62069C 24217N   26127.70118056 -.00055663  00000+0 -45827-3 0  1273
2 62069  53.1565 140.6510 0001308  74.4237  77.0146 15.69749897    17
STARLINK-32604          
1 62070C 24217P   26127.68659722 -.00036345  00000+0 -12252-2 0  1273
2 62070  53.1575 280.1274 0001121  79.3047 161.0032 15.30203591    15
STARLINK-32553          
1 62071C 24217Q   26127.64423611 -.00047634  00000+0 -16054-2 0  1273
2 62071  53.1579 280.3140 0000999  85.3215 287.3139 15.30215818    15
STARLINK-32603          
1 62072C 24217R   26127.64701389 -.00051751  00000+0 -17442-2 0  1272
2 62072  53.1596 280.1709 0001163  89.7456   2.1814 15.30217119    12
STARLINK-32444          
1 62073C 24217S   26127.68173611 -.00072694  00000+0 -24498-2 0  1276
2 62073  53.1602 279.9604 0001215  90.0779 228.1001 15.30230941    18
STARLINK-32619          
1 62074C 24217T   26127.63729167 -.00011583  00000+0 -39058-3 0  1274
2 62074  53.1577 280.4008 0001401  74.7470 230.5608 15.30181253    10
STARLINK-32580          
1 62075C 24217U   26127.69770833 -.00004950  00000+0 -16689-3 0  1272
2 62075  53.1598 267.2067 0001053  89.7722 255.5576 15.30183797    17
STARLINK-32617          
1 62076C 24217V   26127.63868056 -.00044549  00000+0 -15014-2 0  1270
2 62076  53.1572 267.1930 0001188  87.1625  78.2138 15.30214628    13
STARLINK-11384 [DTC]    
1 62088C 24220A   26127.66020833  .00054232  00000+0  42166-3 0  1270
2 62088  43.0003  47.9946 0001689 262.3482  92.4611 15.70786625    17
STARLINK-11379 [DTC]    
1 62089C 24220B   26127.68034722 -.00041108  00000+0 -31948-3 0  1271
2 62089  43.0003  47.7989 0001672 259.0320 239.8441 15.70844318    11
STARLINK-11387 [DTC]    
1 62090C 24220C   26127.69631944 -.00028282  00000+0 -21983-3 0  1279
2 62090  43.0003  47.6280 0001593 260.1400 359.2366 15.70835204    17
STARLINK-11389 [DTC]    
1 62091C 24220D   26127.69701389 -.00008881  00000+0 -69009-4 0  1276
2 62091  43.0004  47.5492 0001636 263.5958  29.7621 15.70832763    16
STARLINK-11388 [DTC]    
1 62092C 24220E   26127.68590278 -.00008312  00000+0 -64606-4 0  1276
2 62092  43.0002  47.5414 0001569 258.6764   1.8384 15.70826219    10
STARLINK-11345 [DTC]    
1 62093C 24220F   26127.69215278  .00009164  00000+0  71228-4 0  1274
2 62093  43.0003  47.4289 0001551 256.4083  69.5564 15.70817102    14
STARLINK-11381 [DTC]    
1 62094C 24220G   26127.64840278 -.00080192  00000+0 -62283-3 0  1276
2 62094  43.0003  47.6178 0001354 275.8648 192.4215 15.70879494    18
STARLINK-11369 [DTC]    
1 62095C 24220H   26127.63937500 -.00028539  00000+0 -22182-3 0  1272
2 62095  43.0004  47.5974 0001924 257.7951 189.4661 15.70835627    13
STARLINK-11303 [DTC]    
1 62096C 24220J   26127.69701389  .00009324  00000+0  72452-4 0  1278
2 62096  43.0003  47.1752 0001723 274.4519 169.2150 15.70822543    18
STARLINK-11367 [DTC]    
1 62097C 24220K   26127.63868056 -.00007282  00000+0 -56591-4 0  1277
2 62097  43.0004  47.4519 0001806 258.6986 244.7484 15.70828119    12
STARLINK-11386 [DTC]    
1 62098C 24220L   26127.68590278  .00088171  00000+0  68713-3 0  1273
2 62098  43.0005  47.0928 0001597 270.0398 170.8340 15.70714955    18
STARLINK-11380 [DTC]    
1 62099C 24220M   26127.66645833 -.00056617  00000+0 -44000-3 0  1275
2 62099  43.0003  47.1351 0001582 260.0657 100.7802 15.70852545    12
STARLINK-33566          
1 62100C 24220N   26127.68590278  .00043685  00000+0  15820-2 0  1278
2 62100  43.0006 217.6594 0001379 264.3887  93.9504 15.27562197    12
STARLINK-33545          
1 62101C 24220P   26127.70187500  .00042629  00000+0  15438-2 0  1274
2 62101  43.0015 232.0283 0001378 265.3214 296.8791 15.27561698    10
STARLINK-33562          
1 62102C 24220Q   26127.66576389  .00079459  00000+0  28772-2 0  1273
2 62102  43.0023 232.3844 0001118 256.3423  43.4495 15.27549075    12
STARLINK-33554          
1 62103C 24220R   26127.70048611  .00025880  00000+0  93589-3 0  1279
2 62103  43.0011 231.9840 0001234 257.5053 318.3380 15.27617466    19
STARLINK-33555          
1 62104C 24220S   26127.65951389  .00031761  00000+0  11500-2 0  1276
2 62104  43.0012 232.6540 0001572 292.3311 233.8999 15.27573267    12
STARLINK-33559          
1 62107C 24220V   26127.68381944  .00035240  00000+0  12762-2 0  1273
2 62107  43.0021 232.4676 0001658 260.5240  60.7874 15.27566703    12
STARLINK-33553          
1 62108C 24220W   26127.69284722  .00015679  00000+0  56796-3 0  1271
2 62108  43.0028 232.3152 0001737 271.4446 142.0468 15.27566529    14
STARLINK-33556          
1 62109C 24220X   26127.69701389 -.00040965  00000+0 -14845-2 0  1271
2 62109  43.0023 232.1055 0001220 265.7213 248.6120 15.27583016    13
STARLINK-33551          
1 62110C 24220Y   26127.64076389 -.00003029  00000+0 -10972-3 0  1271
2 62110  43.0020 232.6591 0001444 272.8549 192.6669 15.27572694    17
STARLINK-32311          
1 62114C 24222A   26127.63798611  .00003580  00000+0  12965-3 0  1279
2 62114  42.9998 148.2926 0001548 279.9627 219.4589 15.27578827    10
STARLINK-32470          
1 62115C 24222B   26127.68173611 -.00003616  00000+0 -13096-3 0  1270
2 62115  43.0024 162.8571 0001563 274.1946  66.4386 15.27581646    17
STARLINK-32502          
1 62116C 24222C   26127.69562500 -.00011751  00000+0 -42554-3 0  1271
2 62116  43.0000 163.0576 0001624 275.3598  21.4477 15.27589886    10
STARLINK-32521          
1 62117C 24222D   26127.68243056 -.00009867  00000+0 -35734-3 0  1270
2 62117  43.0001 159.3781 0001701 273.7529  25.6725 15.27586662    11
STARLINK-32549          
1 62118C 24222E   26127.68034722  .00001573  00000+0  56995-4 0  1276
2 62118  43.0009 162.6769 0001274 265.4054 145.3854 15.27559577    17
STARLINK-32535          
1 62119C 24222F   26127.65187500  .00011594  00000+0  42005-3 0  1277
2 62119  42.9994 159.9575 0001739 278.7576  92.0688 15.27561978    16
STARLINK-32548          
1 62120C 24222G   26127.65187500  .00015684  00000+0  56798-3 0  1277
2 62120  42.9995 163.4915 0001319 271.8775  66.1652 15.27576528    16
STARLINK-32525          
1 62121C 24222H   26127.68104167 -.00001199  00000+0 -43425-4 0  1271
2 62121  43.0014 162.7575 0001520 282.1606  97.0940 15.27580321    16
STARLINK-32628          
1 62122C 24222J   26127.66576389  .00009507  00000+0  34453-3 0  1278
2 62122  43.0012 163.0770 0001256 293.7523 262.3288 15.27555956    16
STARLINK-32626          
1 62123C 24222K   26127.69909722 -.00014122  00000+0 -51166-3 0  1274
2 62123  43.0001 163.1379 0001537 269.4140   4.0091 15.27574945    10
STARLINK-32608          
1 62124C 24222L   26127.69979167 -.00006745  00000+0 -24426-3 0  1276
2 62124  43.0026 162.8026 0001665 277.5222 141.2691 15.27585266    14
